NORAD_CAT_ID,OBJECT_NAME,OBJECT_TYPE,EPOCH,MEAN_MOTION,ECCENTRICITY,INCLINATION,RA_OF_ASC_NODE,ARG_OF_PERICENTER,MEAN_ANOMALY,BSTAR,MEAN_MOTION_DOT,MEAN_MOTION_DDOT,TLE_LINE0,TLE_LINE1,TLE_LINE2,SEMIMAJOR_AXIS,PERIOD,APOGEE,PERIGEE,DECAYED
52363.0,STARLINK-3830,PAYLOAD,2023-06-10 20:36:06,15.08844762,9.33e-05,53.2183,21.0035,101.4366,258.6731,3.1386e-05,2.12e-06,0.0,0 STARLINK-3830,1 52363U 22045AJ  23161.85840278  .00000212  00000-0  31386-4 0  9997,2 52363  53.2183  21.0035 0000933 101.4366 258.6731 15.08844762 64399,6917.866,95.437,540.376,539.085,0.0
52363.0,STARLINK-3830,PAYLOAD,2023-06-11 14:05:20,15.08836848,0.000106,53.2187,17.733,84.1063,276.0049,9.7646e-05,1.266e-05,0.0,0 STARLINK-3830,1 52363U 22045AJ  23162.58704681  .00001266  00000-0  97646-4 0  9996,2 52363  53.2187  17.7330 0001060  84.1063 276.0049 15.08836848 64501,6917.89,95.438,540.488,539.022,0.0
52363.0,STARLINK-3830,PAYLOAD,2023-06-11 20:26:53,15.08837393,0.0001085,53.2189,16.5435,87.3051,272.8066,8.9581e-05,1.138e-05,0.0,0 STARLINK-3830,1 52363U 22045AJ  23162.85200720  .00001138  00000-0  89581-4 0  9998,2 52363  53.2189  16.5435 0001085  87.3051 272.8066 15.08837393 64548,6917.888,95.438,540.504,539.003,0.0
52363.0,STARLINK-3830,PAYLOAD,2023-06-11 23:37:39,15.08841954,0.0001028,53.2184,15.9479,88.4161,271.6949,6.8258e-05,7.99e-06,0.0,0 STARLINK-3830,1 52363U 22045AJ  23162.98448458  .00000799  00000-0  68258-4 0  9994,2 52363  53.2184  15.9479 0001028  88.4161 271.6949 15.08841954 64562,6917.874,95.437,540.451,539.028,0.0
52363.0,STARLINK-3830,PAYLOAD,2023-06-12 20:17:39,15.08856762,0.0001028,53.2187,12.0816,83.831,276.2799,-5.9239e-05,-1.231e-05,0.0,0 STARLINK-3830,1 52363U 22045AJ  23163.84559529 -.00001231  00000-0 -59239-4 0  9995,2 52363  53.2187  12.0816 0001028  83.8310 276.2799 15.08856762 64694,6917.829,95.436,540.405,538.983,0.0
52363.0,STARLINK-3830,PAYLOAD,2023-06-12 23:28:25,15.08853928,9.94e-05,53.2184,11.4864,93.847,266.2636,8.7734e-05,1.109e-05,0.0,0 STARLINK-3830,1 52363U 22045AJ  23163.97807439  .00001109  00000-0  87734-4 0  9998,2 52363  53.2184  11.4864 0000994  93.8470 266.2636 15.08853928 64719,6917.838,95.437,540.39,539.015,0.0
52363.0,STARLINK-3830,PAYLOAD,2023-06-13 20:08:27,15.08837849,9.01e-05,53.2187,7.6207,95.9755,264.134,6.3872e-05,7.29e-06,0.0,0 STARLINK-3830,1 52363U 22045AJ  23164.83920463  .00000729  00000-0  63872-4 0  9991,2 52363  53.2187   7.6207 0000901  95.9755 264.1340 15.08837849 64844,6917.887,95.438,540.375,539.129,0.0
52363.0,STARLINK-3830,PAYLOAD,2023-06-14 13:37:42,15.08835497,0.0001112,53.2202,4.3463,109.1797,250.9315,-4.7355e-05,-1.041e-05,0.0,0 STARLINK-3830,1 52363U 22045AJ  23165.56784982 -.00001041  00000-0 -47355-4 0  9994,2 52363  53.2202   4.3463 0001112 109.1797 250.9315 15.08835497 64953,6917.894,95.438,540.528,538.99,0.0
52363.0,STARLINK-3830,PAYLOAD,2023-06-14 19:59:14,15.08839409,7.97e-05,53.2185,3.1583,87.5723,272.536,-1.6547e-05,-5.51e-06,0.0,0 STARLINK-3830,1 52363U 22045AJ  23165.83280687 -.00000551  00000-0 -16547-4 0  9991,2 52363  53.2185   3.1583 0000797  87.5723 272.5360 15.08839409 64990,6917.882,95.438,540.299,539.196,0.0
52363.0,STARLINK-3830,PAYLOAD,2023-06-15 13:28:29,15.08837461,9.44e-05,53.2183,359.8898,90.5776,269.5325,4.4156e-05,4.15e-06,0.0,0 STARLINK-3830,1 52363U 22045AJ  23166.56144865  .00000415  00000-0  44156-4 0  9993,2 52363  53.2183 359.8898 0000944  90.5776 269.5325 15.08837461 65101,6917.888,95.438,540.406,539.1,0.0
52363.0,STARLINK-3830,PAYLOAD,2023-06-15 19:50:01,15.08842185,9.01e-05,53.2185,358.7009,88.7898,271.3197,9.0237e-05,1.149e-05,0.0,0 STARLINK-3830,1 52363U 22045AJ  23166.82640489  .00001149  00000-0  90237-4 0  9991,2 52363  53.2185 358.7009 0000901  88.7898 271.3197 15.08842185 65143,6917.874,95.437,540.362,539.115,0.0
52363.0,STARLINK-3830,PAYLOAD,2023-06-16 13:19:15,15.08841084,9.21e-05,53.2184,355.4299,83.9346,276.1751,0.00011684,1.572e-05,0.0,0 STARLINK-3830,1 52363U 22045AJ  23167.55504611  .00001572  00000-0  11684-3 0  9996,2 52363  53.2184 355.4299 0000921  83.9346 276.1751 15.08841084 65252,6917.877,95.437,540.379,539.105,0.0
52363.0,STARLINK-3830,PAYLOAD,2023-06-16 19:40:47,15.08849776,9.37e-05,53.2188,354.2417,91.1047,269.0053,0.00018883,2.72e-05,0.0,0 STARLINK-3830,1 52363U 22045AJ  23167.81999788  .00002720  00000-0  18883-3 0  9992,2 52363  53.2188 354.2417 0000937  91.1047 269.0053 15.08849776 65297,6917.851,95.437,540.364,539.067,0.0
52363.0,STARLINK-3830,PAYLOAD,2023-06-16 22:51:34,15.08854449,9.29e-05,53.2178,353.646,85.5202,274.5896,0.00024756,3.656e-05,0.0,0 STARLINK-3830,1 52363U 22045AJ  23167.95247752  .00003656  00000-0  24756-3 0  9999,2 52363  53.2178 353.6460 0000929  85.5202 274.5896 15.08854449 65310,6917.836,95.437,540.344,539.059,0.0
52363.0,STARLINK-3830,PAYLOAD,2023-06-17 05:13:07,15.08838225,0.0001647,53.2178,352.4567,73.1058,287.0114,1.0552e-05,-1.2e-06,0.0,0 STARLINK-3830,1 52363U 22045AJ  23168.21744832 -.00000120  00000-0  10552-4 0  9994,2 52363  53.2178 352.4567 0001647  73.1058 287.0114 15.08838225 65355,6917.886,95.438,540.89,538.611,0.0
52363.0,STARLINK-3830,PAYLOAD,2023-06-17 13:10:03,15.08836214,0.0001947,53.2177,350.9705,73.9548,286.1658,-6.0752e-05,-1.255e-05,0.0,0 STARLINK-3830,1 52363U 22045AJ  23168.54865099 -.00001255  00000-0 -60752-4 0  9997,2 52363  53.2177 350.9705 0001947  73.9548 286.1658 15.08836214 65401,6917.892,95.438,541.104,538.41,0.0
52363.0,STARLINK-3830,PAYLOAD,2023-06-17 19:31:36,15.08821493,9.98e-05,53.2182,349.7812,72.718,287.3921,-0.00024096,-4.119e-05,0.0,0 STARLINK-3830,1 52363U 22045AJ  23168.81361900 -.00004119  00000-0 -24096-3 0  9991,2 52363  53.2182 349.7812 0000998  72.7180 287.3921 15.08821493 65449,6917.937,95.439,540.492,539.112,0.0
52363.0,STARLINK-3830,PAYLOAD,2023-06-18 05:03:55,15.08828629,9.97e-05,53.2183,347.9967,72.4237,287.6864,-9.163e-05,-1.745e-05,0.0,0 STARLINK-3830,1 52363U 22045AJ  23169.21105879 -.00001745  00000-0 -91630-4 0  9998,2 52363  53.2183 347.9967 0000997  72.4237 287.6864 15.08828629 65504,6917.915,95.438,540.47,539.09,0.0
52363.0,STARLINK-3830,PAYLOAD,2023-06-18 11:25:27,15.08834164,8.97e-05,53.2181,346.8066,72.4657,287.6433,2.4198e-05,9.7e-07,0.0,0 STARLINK-3830,1 52363U 22045AJ  23169.47601771  .00000097  00000-0  24198-4 0  9990,2 52363  53.2181 346.8066 0000897  72.4657 287.6433 15.08834164 65542,6917.898,95.438,540.384,539.143,0.0
52363.0,STARLINK-3830,PAYLOAD,2023-06-18 17:47:00,15.08839803,9.17e-05,53.218,345.6174,70.1594,289.9497,0.00023152,3.399e-05,0.0,0 STARLINK-3830,1 52363U 22045AJ  23169.74097743  .00003399  00000-0  23152-3 0  9994,2 52363  53.2180 345.6174 0000917  70.1594 289.9497 15.08839803 65580,6917.881,95.438,540.38,539.112,0.0
52363.0,STARLINK-3830,PAYLOAD,2023-06-19 11:16:14,15.08853563,9.41e-05,53.2177,342.3465,62.2833,297.8255,0.0006713,0.00010416,0.0,0 STARLINK-3830,1 52363U 22045AJ  23170.46961790  .00010416  00000-0  67130-3 0  9999,2 52363  53.2177 342.3465 0000941  62.2833 297.8255 15.08853563 65699,6917.839,95.437,540.355,539.053,0.0
52363.0,STARLINK-3830,PAYLOAD,2023-06-19 19:13:10,15.08865145,9.43e-05,53.2176,340.8596,60.6864,299.4222,0.00081798,0.00012763,0.0,0 STARLINK-3830,1 52363U 22045AJ  23170.80081265  .00012763  00000-0  81798-3 0  9990,2 52363  53.2176 340.8596 0000943  60.6864 299.4222 15.08865145 65741,6917.804,95.436,540.321,539.016,0.0
52363.0,STARLINK-3830,PAYLOAD,2023-06-20 04:45:28,15.08854142,0.0001246,53.2159,339.0793,50.5033,309.6069,0.00036577,5.54e-05,0.0,0 STARLINK-3830,1 52363U 22045AJ  23171.19825189  .00005540  00000-0  36577-3 0  9994,2 52363  53.2159 339.0793 0001246  50.5033 309.6069 15.08854142 65809,6917.837,95.437,540.564,538.84,0.0
52363.0,STARLINK-3830,PAYLOAD,2023-06-20 11:07:01,15.08852585,0.0001148,53.2168,337.8859,75.9681,284.1438,0.00022902,3.36e-05,0.0,0 STARLINK-3830,1 52363U 22045AJ  23171.46321188  .00003360  00000-0  22902-3 0  9999,2 52363  53.2168 337.8859 0001148  75.9681 284.1438 15.08852585 65849,6917.842,95.437,540.501,538.913,0.0
52363.0,STARLINK-3830,PAYLOAD,2023-06-20 17:28:33,15.08848622,8.23e-05,53.2179,336.6958,88.3909,271.7177,0.00011344,1.519e-05,0.0,0 STARLINK-3830,1 52363U 22045AJ  23171.72817127  .00001519  00000-0  11344-3 0  9993,2 52363  53.2179 336.6958 0000823  88.3909 271.7177 15.08848622 65881,6917.854,95.437,540.288,539.15,0.0
52363.0,STARLINK-3830,PAYLOAD,2023-06-21 17:19:21,15.08846949,9.54e-05,53.2183,332.236,79.6329,280.4771,3.9628e-05,3.43e-06,0.0,0 STARLINK-3830,1 52363U 22045AJ  23172.72177175  .00000343  00000-0  39628-4 0  9996,2 52363  53.2183 332.2360 0000954  79.6329 280.4771 15.08846949 66034,6917.859,95.437,540.384,539.064,0.0
52363.0,STARLINK-3830,PAYLOAD,2023-06-22 17:10:08,15.08840745,8.57e-05,53.2183,327.7752,78.706,281.4029,0.0001596,2.253e-05,0.0,0 STARLINK-3830,1 52363U 22045AJ  23173.71537568  .00002253  00000-0  15960-3 0  9996,2 52363  53.2183 327.7752 0000857  78.7060 281.4029 15.08840745 66183,6917.878,95.438,540.336,539.15,0.0
52363.0,STARLINK-3830,PAYLOAD,2023-06-23 18:36:18,15.08850507,8.31e-05,53.2177,323.0187,83.2089,276.8998,0.00020447,2.969e-05,0.0,0 STARLINK-3830,1 52363U 22045AJ  23174.77521023  .00002969  00000-0  20447-3 0  9992,2 52363  53.2177 323.0187 0000831  83.2089 276.8998 15.08850507 66349,6917.848,95.437,540.288,539.138,0.0
52363.0,STARLINK-3830,PAYLOAD,2023-06-24 16:51:42,15.08840055,9.1e-05,53.219,318.8569,93.9862,266.1234,2.3434e-05,8.5e-07,0.0,0 STARLINK-3830,1 52363U 22045AJ  23175.70257962  .00000085  00000-0  23434-4 0  9991,2 52363  53.2190 318.8569 0000910  93.9862 266.1234 15.08840055 66482,6917.88,95.438,540.375,539.116,0.0
52363.0,STARLINK-3830,PAYLOAD,2023-06-26 02:14:48,15.0884076,9.9e-05,53.218,312.611,96.9994,263.1111,6.1749e-06,-1.89e-06,0.0,0 STARLINK-3830,1 52363U 22045AJ  23177.09361934 -.00000189  00000-0  61749-5 0  9998,2 52363  53.2180 312.6110 0000990  96.9994 263.1111 15.08840760 66699,6917.878,95.438,540.428,539.058,0.0
